[{"OBJECT_NAME":"IRIS","OBJECT_ID":"2013-033A","EPOCH":"2026-03-09T13:26:21.239520","MEAN_MOTION":14.85645982,"ECCENTRICITY":0.00232612,"INCLINATION":97.9395,"RA_OF_ASC_NODE":268.1167,"ARG_OF_PERICENTER":285.8728,"MEAN_ANOMALY":73.9923,"EPHEMERIS_TYPE":0,"CLASSIFICATION_TYPE":"U","NORAD_CAT_ID":39197,"ELEMENT_SET_NO":999,"REV_AT_EPOCH":68558,"BSTAR":0.00024024039,"MEAN_MOTION_DOT":2.035e-5,"MEAN_MOTION_DDOT":0},{"OBJECT_NAME":"CZ-4C DEB","OBJECT_ID":"2018-031E","EPOCH":"2026-03-09T22:35:07.887264","MEAN_MOTION":14.80225117,"ECCENTRICITY":0.00372542,"INCLINATION":97.6949,"RA_OF_ASC_NODE":76.8588,"ARG_OF_PERICENTER":305.4691,"MEAN_ANOMALY":54.3046,"EPHEMERIS_TYPE":0,"CLASSIFICATION_TYPE":"U","NORAD_CAT_ID":43263,"ELEMENT_SET_NO":999,"REV_AT_EPOCH":42668,"BSTAR":0.00049326267,"MEAN_MOTION_DOT":3.744e-5,"MEAN_MOTION_DDOT":0}]
